CCSDS_OEM_VERS = 1.0
CREATION_DATE  = 2017-05-11T11:13:35
ORIGINATOR     = GMAT USER

META_START
OBJECT_NAME          = MOPSSat_alt_35785_km_RAAN_90_044
OBJECT_ID            = SatId
CENTER_NAME          = Earth
REF_FRAME            = EME2000
TIME_SYSTEM          = UTC
START_TIME           = 2017-01-01T00:00:00.000
USEABLE_START_TIME   = 2017-01-01T00:00:00.000
USEABLE_STOP_TIME    = 2017-01-02T00:00:00.000
STOP_TIME            = 2017-01-02T00:00:00.000
INTERPOLATION        = Lagrange
INTERPOLATION_DEGREE = 7 
META_STOP


                                                                                   

2017-01-01T08:42:30.000  -3.182835939970689e+04  -2.765241682296593e+04   1.052849026991454e+00   2.016680526495254e+00  -2.320937272526010e+00   4.694274898348369e-06
2017-01-01T08:42:40.000  -3.180818413277661e+04  -2.767561884020103e+04   1.052895668614639e+00   2.018372721422655e+00  -2.319466015553564e+00   4.634044699708820e-06
2017-01-01T08:42:50.000  -3.178799194905874e+04  -2.769880613893086e+04   1.052941707782367e+00   2.020063843217150e+00  -2.317993524859248e+00   4.573783718083246e-06
2017-01-01T08:43:00.000  -3.176778285928878e+04  -2.772197870682180e+04   1.052987144186948e+00   2.021753890979205e+00  -2.316519801225652e+00   4.513491983775941e-06
2017-01-01T08:43:10.000  -3.174755687422130e+04  -2.774513653153558e+04   1.053031977520955e+00   2.023442863808946e+00  -2.315044845436758e+00   4.453169527145454e-06
2017-01-01T08:43:20.000  -3.172731400482667e+04  -2.776827960050844e+04   1.053076207476869e+00   2.025130760790054e+00  -2.313568658292284e+00   4.392816379206843e-06
2017-01-01T08:43:30.000  -3.170705426202701e+04  -2.779140790124928e+04   1.053119833747591e+00   2.026817581011511e+00  -2.312091240588430e+00   4.332432570828371e-06
2017-01-01T08:43:40.000  -3.168677765679988e+04  -2.781452142122205e+04   1.053162856026230e+00   2.028503323559015e+00  -2.310612593125434e+00   4.272018133046870e-06
2017-01-01T08:43:50.000  -3.166648419972082e+04  -2.783762014836731e+04   1.053205274007076e+00   2.030187987553027e+00  -2.309132716674223e+00   4.211573095686326e-06
2017-01-01T08:44:00.000  -3.164617390142065e+04  -2.786070407058050e+04   1.053247087384622e+00   2.031871572110716e+00  -2.307651612009757e+00   4.151097488738948e-06
2017-01-01T08:44:10.000  -3.162584677248243e+04  -2.788377317583022e+04   1.053288295853797e+00   2.033554076354585e+00  -2.306169279903504e+00   4.090591342050993e-06
2017-01-01T08:44:20.000  -3.160550282370232e+04  -2.790682745185732e+04   1.053328899109349e+00   2.035235499390528e+00  -2.304685721142478e+00   4.030054686120150e-06
2017-01-01T08:44:30.000  -3.158514206589650e+04  -2.792986688639890e+04   1.053368896846326e+00   2.036915840324163e+00  -2.303200936515158e+00   3.969487551500128e-06
2017-01-01T08:44:40.000  -3.156476450990035e+04  -2.795289146718747e+04   1.053408288760043e+00   2.038595098260772e+00  -2.301714926811410e+00   3.908889968805515e-06
2017-01-01T08:44:50.000  -3.154437016676645e+04  -2.797590118173154e+04   1.053447074545786e+00   2.040273272289303e+00  -2.300227692836953e+00   3.848261969280619e-06
2017-01-01T08:45:00.000  -3.152395904749868e+04  -2.799889601761197e+04   1.053485253899244e+00   2.041950361503975e+00  -2.298739235393945e+00   3.787603584028668e-06
2017-01-01T08:45:10.000  -3.150353116315663e+04  -2.802187596236493e+04   1.053522826516328e+00   2.043626364995752e+00  -2.297249555288610e+00   3.726914844315424e-06
2017-01-01T08:45:20.000  -3.148308652439480e+04  -2.804484100400067e+04   1.053559792094024e+00   2.045301281890169e+00  -2.295758653297634e+00   3.666195780217765e-06
2017-01-01T08:45:30.000  -3.146262514192323e+04  -2.806779113048465e+04   1.053596150329537e+00   2.046975111309496e+00  -2.294266530201748e+00   3.605446421974744e-06
2017-01-01T08:45:40.000  -3.144214702640372e+04  -2.809072632985512e+04   1.053631900920491e+00   2.048647852381311e+00  -2.292773186778168e+00   3.544666799685036e-06
2017-01-01T08:45:50.000  -3.142165218871263e+04  -2.811364658992405e+04   1.053667043564392e+00   2.050319504216688e+00  -2.291278623819756e+00   3.483856944072344e-06
2017-01-01T08:46:00.000  -3.140114063974649e+04  -2.813655189849974e+04   1.053701577959045e+00   2.051990065926432e+00  -2.289782842120845e+00   3.423016885922715e-06
2017-01-01T08:46:10.000  -3.138061239042089e+04  -2.815944224338609e+04   1.053735503802533e+00   2.053659536621027e+00  -2.288285842477158e+00   3.362146656077018e-06
2017-01-01T08:46:20.000  -3.136006745187018e+04  -2.818231761216437e+04   1.053768820792964e+00   2.055327915394718e+00  -2.286787625700373e+00   3.301246286035698e-06
2017-01-01T08:46:30.000  -3.133950583517956e+04  -2.820517799248788e+04   1.053801528628838e+00   2.056995201347008e+00  -2.285288192598578e+00   3.240315807151598e-06
2017-01-01T08:46:40.000  -3.131892755149219e+04  -2.822802337196349e+04   1.053833627008890e+00   2.058661393574002e+00  -2.283787543984094e+00   3.179355250952166e-06
2017-01-01T08:46:50.000  -3.129833261153719e+04  -2.825085373867573e+04   1.053865115632827e+00   2.060326491206652e+00  -2.282285680639045e+00   3.118364647729315e-06
2017-01-01T08:47:00.000  -3.127772102610281e+04  -2.827366908066124e+04   1.053895994200586e+00   2.061990493372413e+00  -2.280782603349868e+00   3.057344027952127e-06
2017-01-01T08:47:10.000  -3.125709280591436e+04  -2.829646938604458e+04   1.053926262412530e+00   2.063653399205152e+00  -2.279278312898409e+00   2.996293421901934e-06
2017-01-01T08:47:20.000  -3.123644796196174e+04  -2.831925464267251e+04   1.053955919968895e+00   2.065315207818470e+00  -2.277772810085814e+00   2.935212860650753e-06
2017-01-01T08:47:30.000  -3.121578650522958e+04  -2.834202483841599e+04   1.053984966570264e+00   2.066975918327743e+00  -2.276266095712836e+00   2.874102375253655e-06
2017-01-01T08:47:40.000  -3.119510844675720e+04  -2.836477996110284e+04   1.054013401917451e+00   2.068635529845189e+00  -2.274758170584223e+00   2.812961996929078e-06
2017-01-01T08:47:50.000  -3.117441379762350e+04  -2.838751999853696e+04   1.054041225711577e+00   2.070294041481285e+00  -2.273249035507609e+00   2.751791757009479e-06
2017-01-01T08:48:00.000  -3.115370256892533e+04  -2.841024493852012e+04   1.054068437654056e+00   2.071951452346353e+00  -2.271738691291934e+00   2.690591686880846e-06
2017-01-01T08:48:10.000  -3.113297477177007e+04  -2.843295476886031e+04   1.054095037446615e+00   2.073607761551166e+00  -2.270227138746906e+00   2.629361817961222e-06
2017-01-01T08:48:20.000  -3.111223041720212e+04  -2.845564947745338e+04   1.054121024791405e+00   2.075262968212904e+00  -2.268714378677644e+00   2.568102181479747e-06
2017-01-01T08:48:30.000  -3.109146951625155e+04  -2.847832905222836e+04   1.054146399390919e+00   2.076917071451172e+00  -2.267200411888220e+00   2.506812808625388e-06
2017-01-01T08:48:40.000  -3.107069207993435e+04  -2.850099348114755e+04   1.054171160947988e+00   2.078570070387994e+00  -2.265685239181676e+00   2.445493730544559e-06
2017-01-01T08:48:50.000  -3.104989811920216e+04  -2.852364275226005e+04   1.054195309165827e+00   2.080221964151723e+00  -2.264168861356366e+00   2.384144978204223e-06
2017-01-01T08:49:00.000  -3.102908764501705e+04  -2.854627685362103e+04   1.054218843747958e+00   2.081872751871161e+00  -2.262651279211404e+00   2.322766582600482e-06
2017-01-01T08:49:10.000  -3.100826066835925e+04  -2.856889577328379e+04   1.054241764398207e+00   2.083522432674969e+00  -2.261132493547225e+00   2.261358574785775e-06
2017-01-01T08:49:20.000  -3.098741720024665e+04  -2.859149949927626e+04   1.054264070820645e+00   2.085171005689956e+00  -2.259612505167016e+00   2.199920985911826e-06
2017-01-01T08:49:30.000  -3.096655725175295e+04  -2.861408801958409e+04   1.054285762719616e+00   2.086818470039848e+00  -2.258091314878026e+00   2.138453847297699e-06
2017-01-01T08:49:40.000  -3.094568083394558e+04  -2.863666132221658e+04   1.054306839799782e+00   2.088464824850094e+00  -2.256568923487055e+00   2.076957190241861e-06
2017-01-01T08:49:50.000  -3.092478795816252e+04  -2.865921939491080e+04   1.054327301765905e+00   2.090110069226290e+00  -2.255045331820627e+00   2.015431046853887e-06
2017-01-01T08:50:00.000  -3.090387863567732e+04  -2.868176222549054e+04   1.054347148323127e+00   2.091754202280355e+00  -2.253520540700571e+00   1.953875449051139e-06
2017-01-01T08:50:10.000  -3.088295287782344e+04  -2.870428980173266e+04   1.054366379176858e+00   2.093397223120783e+00  -2.251994550953084e+00   1.892290428931365e-06
2017-01-01T08:50:20.000  -3.086201069551314e+04  -2.872680211188544e+04   1.054384994033224e+00   2.095039130890452e+00  -2.250467363373644e+00   1.830676017337863e-06
2017-01-01T08:50:30.000  -3.084105209971720e+04  -2.874929914415141e+04   1.054402992598621e+00   2.096679924728901e+00  -2.248938978762002e+00   1.769032245290399e-06
2017-01-01T08:50:40.000  -3.082007710135657e+04  -2.877178088680484e+04   1.054420374579818e+00   2.098319603780902e+00  -2.247409397914272e+00   1.707359143659032e-06
2017-01-01T08:50:50.000  -3.079908571157171e+04  -2.879424732789846e+04   1.054437139683658e+00   2.099958167175066e+00  -2.245878621642575e+00   1.645656743977040e-06
2017-01-01T08:51:00.000  -3.077807794152320e+04  -2.881669845548178e+04   1.054453287617305e+00   2.101595614039772e+00  -2.244346650760503e+00   1.583925077833840e-06
2017-01-01T08:51:10.000  -3.075705380239091e+04  -2.883913425760029e+04   1.054468818088214e+00   2.103231943503103e+00  -2.242813486083052e+00   1.522164176880005e-06
2017-01-01T08:51:20.000  -3.073601330557828e+04  -2.886155472208175e+04   1.054483730804064e+00   2.104867154677261e+00  -2.241279128441518e+00   1.460374073406831e-06
2017-01-01T08:51:30.000  -3.071495646243787e+04  -2.888395983682479e+04   1.054498025472879e+00   2.106501246679618e+00  -2.239743578663497e+00   1.398554799560922e-06
